NORAD_CAT_ID,OBJECT_NAME,OBJECT_TYPE,EPOCH,MEAN_MOTION,ECCENTRICITY,INCLINATION,RA_OF_ASC_NODE,ARG_OF_PERICENTER,MEAN_ANOMALY,BSTAR,MEAN_MOTION_DOT,MEAN_MOTION_DDOT,TLE_LINE0,TLE_LINE1,TLE_LINE2,SEMIMAJOR_AXIS,PERIOD,APOGEE,PERIGEE,DECAYED
55416.0,STARLINK-5624,PAYLOAD,2024-05-27 13:59:10,14.98333397,0.0003227,69.9994,286.0864,270.059,90.0199,5.7421e-05,5.92e-06,0.0,0 STARLINK-5624,1 55416U 23014AB  24148.58276126  .00000592  00000-0  57421-4 0  9996,2 55416  69.9994 286.0864 0003227 270.0590  90.0199 14.98333397 74032,6950.182,96.107,574.29,569.805,0.0
55416.0,STARLINK-5624,PAYLOAD,2024-05-27 18:47:34,14.98338273,0.0003124,69.9997,285.5819,268.5628,91.5173,0.00011501,1.28e-05,0.0,0 STARLINK-5624,1 55416U 23014AB  24148.78303595  .00001280  00000-0  11501-3 0  9992,2 55416  69.9997 285.5819 0003124 268.5628  91.5173 14.98338273 74068,6950.167,96.106,574.204,569.861,0.0
55416.0,STARLINK-5624,PAYLOAD,2024-05-28 02:48:14,14.98339384,0.000313,69.9997,284.7401,269.0963,90.9837,0.00011178,1.241e-05,0.0,0 STARLINK-5624,1 55416U 23014AB  24149.11683361  .00001241  00000-0  11178-3 0  9999,2 55416  69.9997 284.7401 0003130 269.0963  90.9837 14.98339384 73176,6950.164,96.106,574.204,569.853,0.0
55416.0,STARLINK-5624,PAYLOAD,2024-05-28 12:25:03,14.98329931,0.0003013,70.0001,283.7311,267.7829,92.2985,0.0001169,1.302e-05,0.0,0 STARLINK-5624,1 55416U 23014AB  24149.51739951  .00001302  00000-0  11690-3 0  9997,2 55416  70.0001 283.7311 0003013 267.7829  92.2985 14.98329931 73233,6950.193,96.107,574.152,569.964,0.0
55416.0,STARLINK-5624,PAYLOAD,2024-05-28 14:01:11,14.98329979,0.0003017,70.0002,283.5628,267.8094,92.2719,0.00011531,1.283e-05,0.0,0 STARLINK-5624,1 55416U 23014AB  24149.58415956  .00001283  00000-0  11531-3 0  9992,2 55416  70.0002 283.5628 0003017 267.8094  92.2719 14.98329979 74184,6950.193,96.107,574.155,569.961,0.0
55416.0,STARLINK-5624,PAYLOAD,2024-05-28 18:49:35,14.98332504,0.0002988,70.0003,283.0581,267.3857,92.696,0.00013963,1.574e-05,0.0,0 STARLINK-5624,1 55416U 23014AB  24149.78443734  .00001574  00000-0  13963-3 0  9993,2 55416  70.0003 283.0581 0002988 267.3857  92.6960 14.98332504 74210,6950.185,96.107,574.127,569.973,0.0
55416.0,STARLINK-5624,PAYLOAD,2024-05-29 12:27:04,14.98335169,0.0002857,70.0008,281.2069,265.7309,94.3524,3.65e-06,-4.9e-07,0.0,0 STARLINK-5624,1 55416U 23014AB  24150.51879747 -.00000049  00000-0  36500-5 0  9994,2 55416  70.0008 281.2069 0002857 265.7309  94.3524 14.98335169 73387,6950.177,96.107,574.028,570.056,0.0
55416.0,STARLINK-5624,PAYLOAD,2024-05-29 14:03:12,14.9833478,0.0002867,70.0008,281.0386,265.9529,94.1302,-2.7528e-06,-1.26e-06,0.0,0 STARLINK-5624,1 55416U 23014AB  24150.58555762 -.00000126  00000-0 -27528-5 0  9996,2 55416  70.0008 281.0386 0002867 265.9529  94.1302 14.98334780 74330,6950.178,96.107,574.036,570.05,0.0
55416.0,STARLINK-5624,PAYLOAD,2024-05-29 18:51:36,14.98332992,0.0002916,70.0007,280.5333,267.0904,92.9922,-2.8748e-05,-4.36e-06,0.0,0 STARLINK-5624,1 55416U 23014AB  24150.78583885 -.00000436  00000-0 -28748-4 0  9993,2 55416  70.0007 280.5333 0002916 267.0904  92.9922 14.98332992 74360,6950.184,96.107,574.075,570.022,0.0
55416.0,STARLINK-5624,PAYLOAD,2024-05-30 12:29:05,14.98331487,0.0002987,70.0006,278.6813,267.836,92.2457,-1.2264e-06,-1.08e-06,0.0,0 STARLINK-5624,1 55416U 23014AB  24151.52019860 -.00000108  00000-0 -12264-5 0  9996,2 55416  70.0006 278.6813 0002987 267.8360  92.2457 14.98331487 73534,6950.188,96.107,574.129,569.977,0.0
55416.0,STARLINK-5624,PAYLOAD,2024-05-30 14:05:13,14.98331197,0.0002992,70.0005,278.5129,266.8394,93.2423,-5.7444e-06,-1.62e-06,0.0,0 STARLINK-5624,1 55416U 23014AB  24151.58695875 -.00000162  00000-0 -57444-5 0  9997,2 55416  70.0005 278.5129 0002992 266.8394  93.2423 14.98331197 74481,6950.189,96.107,574.134,569.975,0.0
55416.0,STARLINK-5624,PAYLOAD,2024-05-30 18:53:37,14.98334006,0.0002946,70.0005,278.0078,266.6218,93.4604,2.866e-05,2.49e-06,0.0,0 STARLINK-5624,1 55416U 23014AB  24151.78723573  .00000249  00000-0  28660-4 0  9997,2 55416  70.0005 278.0078 0002946 266.6218  93.4604 14.98334006 74510,6950.181,96.107,574.093,569.998,0.0
55416.0,STARLINK-5624,PAYLOAD,2024-05-31 12:31:05,14.98332336,0.0002956,70.0004,276.1561,266.8599,93.2222,7.9574e-05,8.57e-06,0.0,0 STARLINK-5624,1 55416U 23014AB  24152.52159418  .00000857  00000-0  79574-4 0  9996,2 55416  70.0004 276.1561 0002956 266.8599  93.2222 14.98332336 73685,6950.186,96.107,574.105,569.996,0.0
55416.0,STARLINK-5624,PAYLOAD,2024-05-31 14:07:13,14.98332301,0.0003098,70.0002,275.9877,268.8147,91.2657,7.4328e-05,7.94e-06,0.0,0 STARLINK-5624,1 55416U 23014AB  24152.58835454  .00000794  00000-0  74328-4 0  9995,2 55416  70.0002 275.9877 0003098 268.8147  91.2657 14.98332301 74637,6950.186,96.107,574.204,569.898,0.0
55416.0,STARLINK-5624,PAYLOAD,2024-05-31 17:19:29,14.98336094,0.0003103,69.9999,275.6507,268.8271,91.2533,9.7541e-05,1.071e-05,0.0,0 STARLINK-5624,1 55416U 23014AB  24152.72187105  .00001071  00000-0  97541-4 0  9995,2 55416  69.9999 275.6507 0003103 268.8271  91.2533 14.98336094 74659,6950.174,96.107,574.196,569.882,0.0
55416.0,STARLINK-5624,PAYLOAD,2024-06-01 12:33:07,14.98326355,0.0002952,70.0001,273.6309,267.5619,92.5202,-9.1945e-06,-2.03e-06,0.0,0 STARLINK-5624,1 55416U 23014AB  24153.52299945 -.00000203  00000-0 -91945-5 0  9991,2 55416  70.0001 273.6309 0002952 267.5619  92.5202 14.98326355 73832,6950.204,96.107,574.121,570.017,0.0
55416.0,STARLINK-5624,PAYLOAD,2024-06-01 14:09:15,14.98327405,0.000294,70.0001,273.4627,267.3653,92.7169,2.6564e-06,-6.1e-07,0.0,0 STARLINK-5624,1 55416U 23014AB  24153.58975853 -.00000061  00000-0  26564-5 0  9992,2 55416  70.0001 273.4627 0002940 267.3653  92.7169 14.98327405 74782,6950.201,96.107,574.109,570.023,0.0
55416.0,STARLINK-5624,PAYLOAD,2024-06-02 10:58:59,14.98328584,0.0003205,69.9996,271.2736,268.6297,91.4495,-8.5411e-06,-1.95e-06,0.0,0 STARLINK-5624,1 55416U 23014AB  24154.45763837 -.00000195  00000-0 -85411-5 0  9991,2 55416  69.9996 271.2736 0003205 268.6297  91.4495 14.98328584 74914,6950.197,96.107,574.29,569.835,0.0
55416.0,STARLINK-5624,PAYLOAD,2024-06-03 01:24:12,14.98333387,0.0003119,69.9999,269.7575,268.5456,91.5346,3.2873e-05,2.99e-06,0.0,0 STARLINK-5624,1 55416U 23014AB  24155.05847356  .00000299  00000-0  32873-4 0  9993,2 55416  69.9999 269.7575 0003119 268.5456  91.5346 14.98333387 74069,6950.182,96.107,574.215,569.88,0.0
55416.0,STARLINK-5624,PAYLOAD,2024-06-03 14:13:16,14.98334926,0.0003122,69.9997,268.4123,263.3214,96.7589,0.00013621,1.533e-05,0.0,0 STARLINK-5624,1 55416U 23014AB  24155.59255020  .00001533  00000-0  13621-3 0  9994,2 55416  69.9997 268.4123 0003122 263.3214  96.7589 14.98334926 75080,6950.178,96.107,574.213,569.873,0.0
55416.0,STARLINK-5624,PAYLOAD,2024-06-03 17:25:32,14.98335659,0.0003185,69.9994,268.0749,267.4853,92.5942,0.00014483,1.636e-05,0.0,0 STARLINK-5624,1 55416U 23014AB  24155.72606940  .00001636  00000-0  14483-3 0  9991,2 55416  69.9994 268.0749 0003185 267.4853  92.5942 14.98335659 75104,6950.175,96.107,574.254,569.827,0.0
55416.0,STARLINK-5624,PAYLOAD,2024-06-04 01:26:12,14.98332689,0.0003134,69.9997,267.2337,269.5807,90.4993,7.0295e-05,7.46e-06,0.0,0 STARLINK-5624,1 55416U 23014AB  24156.05987260  .00000746  00000-0  70295-4 0  9990,2 55416  69.9997 267.2337 0003134 269.5807  90.4993 14.98332689 74211,6950.185,96.107,574.228,569.871,0.0
55416.0,STARLINK-5624,PAYLOAD,2024-06-04 14:15:17,14.983394,0.000325,69.9997,265.8874,268.7992,91.2795,9.2936e-05,1.016e-05,0.0,0 STARLINK-5624,1 55416U 23014AB  24156.59394682  .00001016  00000-0  92936-4 0  9996,2 55416  69.9997 265.8874 0003250 268.7992  91.2795 14.98339400 75236,6950.164,96.106,574.288,569.77,0.0
55416.0,STARLINK-5624,PAYLOAD,2024-06-05 11:05:03,14.98323506,0.0003538,69.999,263.6988,271.4556,88.6197,-6.8357e-05,-9.08e-06,0.0,0 STARLINK-5624,1 55416U 23014AB  24157.46184092 -.00000908  00000-0 -68357-4 0  9996,2 55416  69.9990 263.6988 0003538 271.4556  88.6197 14.98323506 74423,6950.213,96.107,574.537,569.619,0.0
55416.0,STARLINK-5624,PAYLOAD,2024-06-05 23:54:06,14.98330237,0.0003413,69.9973,262.3509,273.1796,86.8973,3.8332e-05,3.64e-06,0.0,0 STARLINK-5624,1 55416U 23014AB  24157.99591392  .00000364  00000-0  38332-4 0  9993,2 55416  69.9973 262.3509 0003413 273.1796  86.8973 14.98330237 74506,6950.192,96.107,574.429,569.685,0.0
55416.0,STARLINK-5624,PAYLOAD,2024-06-06 11:07:03,14.9833158,0.0003205,69.999,261.173,268.886,91.1932,3.8091e-05,3.61e-06,0.0,0 STARLINK-5624,1 55416U 23014AB  24158.46323412  .00000361  00000-0  38091-4 0  9991,2 55416  69.9990 261.1730 0003205 268.8860  91.1932 14.98331580 75518,6950.188,96.107,574.281,569.825,0.0
55416.0,STARLINK-5624,PAYLOAD,2024-06-07 09:32:56,14.98328581,0.0003148,69.9992,258.817,270.1583,89.9215,0.00014022,1.58e-05,0.0,0 STARLINK-5624,1 55416U 23014AB  24159.39787388  .00001580  00000-0  14022-3 0  9991,2 55416  69.9992 258.8170 0003148 270.1583  89.9215 14.98328581 74712,6950.197,96.107,574.25,569.874,0.0
55416.0,STARLINK-5624,PAYLOAD,2024-06-08 12:47:12,14.98341649,0.0003124,69.9992,255.9557,266.5261,93.5541,0.00011461,1.275e-05,0.0,0 STARLINK-5624,1 55416U 23014AB  24160.53278432  .00001275  00000-0  11461-3 0  9999,2 55416  69.9992 255.9557 0003124 266.5261  93.5541 14.98341649 74886,6950.157,96.106,574.193,569.851,0.0
55416.0,STARLINK-5624,PAYLOAD,2024-06-09 11:13:06,14.98322614,0.0003079,69.9993,253.5988,269.8674,90.2132,-9.8905e-05,-1.273e-05,0.0,0 STARLINK-5624,1 55416U 23014AB  24161.46744023 -.00001273  00000-0 -98905-4 0  9995,2 55416  69.9993 253.5988 0003079 269.8674  90.2132 14.98322614 75020,6950.216,96.107,574.221,569.941,0.0
55416.0,STARLINK-5624,PAYLOAD,2024-06-10 04:50:34,14.98331382,0.0003108,69.9991,251.7461,268.2829,91.7974,8.8329e-06,1.2e-07,0.0,0 STARLINK-5624,1 55416U 23014AB  24162.20179355  .00000012  00000-0  88329-5 0  9996,2 55416  69.9991 251.7461 0003108 268.2829  91.7974 14.98331382 75136,6950.189,96.107,574.214,569.893,0.0
